{
  "norad_id": 59497,
  "name": "STARLINK-31720",
  "history": [
    {
      "epoch": "2026-03-28T17:45:02.632320Z",
      "apogee_km": 483.90350663694426,
      "perigee_km": 482.0201350106272,
      "latitude_deg": 2.3530235113556885e-05,
      "longitude_deg": 140.21152460202146,
      "height_km": 482.89813226089353,
      "semi_major_axis_km": 6861.098820823785,
      "eccentricity": 0.00013725,
      "inclination_deg": 43.0015,
      "raan_deg": 232.6282,
      "arg_perigee_deg": 260.2478,
      "mean_anomaly_deg": 99.8219,
      "mean_motion_rev_day": 15.27609147
    },
    {
      "epoch": "2026-03-30T15:15:36.671040Z",
      "apogee_km": 483.8341956439135,
      "perigee_km": 482.29687460389323,
      "latitude_deg": -1.4858259224038213e-05,
      "longitude_deg": 164.99354989277026,
      "height_km": 482.8353589291827,
      "semi_major_axis_km": 6861.2025351239035,
      "eccentricity": 0.00011203,
      "inclination_deg": 42.9998,
      "raan_deg": 221.9211,
      "arg_perigee_deg": 270.4936,
      "mean_anomaly_deg": 89.5787,
      "mean_motion_rev_day": 15.2757451
    },
    {
      "epoch": "2026-03-31T16:22:07.035168Z",
      "apogee_km": 483.79837712055996,
      "perigee_km": 482.3218475019912,
      "latitude_deg": -4.124729507303529e-05,
      "longitude_deg": 141.42873916567555,
      "height_km": 482.66583077051774,
      "semi_major_axis_km": 6861.197112311275,
      "eccentricity": 0.0001076,
      "inclination_deg": 43.0,
      "raan_deg": 216.014,
      "arg_perigee_deg": 283.3697,
      "mean_anomaly_deg": 76.7034,
      "mean_motion_rev_day": 15.27576321
    }
  ]
}